ONEWEB-0268             
1 48986U 21060V   23059.10129704 -.00000230  00000+0 -63659-3 0  9995
2 48986  87.9008 108.7545 0001906  98.6865 261.4482 13.16595224 82574
ONEWEB-0268             
1 48986U 21060V   23059.55728149 -.00000673  00000+0 -17941-2 0  9995
2 48986  87.9008 108.6636 0001903  98.4408 261.6939 13.16592846 81342
ONEWEB-0268             
1 48986U 21060V   23059.86126993 -.00000616  00000+0 -16439-2 0  9996
2 48986  87.9006 108.6032 0001898  97.2028 262.9319 13.16592218 81381
ONEWEB-0268             
1 48986U 21060V   23060.16525798 -.00000629  00000+0 -16796-2 0  9997
2 48986  87.9009 108.5426 0001897  97.0149 263.1198 13.16592488 82716
ONEWEB-0268             
1 48986U 21060V   23060.84923276 -.00000471  00000+0 -12667-2 0  9993
2 48986  87.9006 108.4062 0001907  96.2706 263.8642 13.16590713 81517
ONEWEB-0268             
1 48986U 21060V   23061.60920459  .00000028  00000+0  38527-4 0  9999
2 48986  87.9005 108.2543 0001877  96.0458 264.0887 13.16589211 81612
ONEWEB-0268             
1 48986U 21060V   23062.14118546  .00000030  00000+0  45883-4 0  9991
2 48986  87.9005 108.1480 0001889  95.8342 264.3004 13.16589460 81680
ONEWEB-0268             
1 48986U 21060V   23062.14118546  .00000030  00000+0  45883-4 0  9991
2 48986  87.9005 108.1480 0001889  95.8342 264.3004 13.16589460 82973
ONEWEB-0268             
1 48986U 21060V   23062.82516137  .00000023  00000+0  25542-4 0  9996
2 48986  87.9004 108.0116 0001883  95.1641 264.9705 13.16589000 81777
